[
    {
        "Altitude(m)": 617710.6302817451,
        "Argument of Periapsis(deg)": 0.0,
        "Eccentricity": 0.0,
        "Inclination(deg)": 60.0,
        "Latitude(deg)": -41.10263475081075,
        "Longitude(deg)": 119.96662395051902,
        "Mean Anomaly(deg)": -49.09089999999994,
        "RAAN(deg)": 250.00000000000003,
        "Satellite Name": "Test1 1119",
        "Satellite Number": 1119,
        "Semi-Major Axis(m)": 6980739.136638005,
        "Time(s)": 0
    },
    {
        "Altitude(m)": 617517.9288199662,
        "Argument of Periapsis(deg)": 0.00010418945913296404,
        "Eccentricity": 0.0,
        "Inclination(deg)": 60.0,
        "Latitude(deg)": -40.63684176446928,
        "Longitude(deg)": 120.46341746903948,
        "Mean Anomaly(deg)": -48.470793854538094,
        "RAAN(deg)": 249.99957995086027,
        "Satellite Name": "Test1 1119",
        "Satellite Number": 1119,
        "Semi-Major Axis(m)": 6980739.136638005,
        "Time(s)": 10
    }
]